[{"OBJECT_NAME":"STARLINK-36136","OBJECT_ID":"2025-288J","EPOCH":"2026-02-11T09:50:42.003168","MEAN_MOTION":15.40732694,"ECCENTRICITY":0.00018471,"INCLINATION":42.998,"RA_OF_ASC_NODE":172.2679,"ARG_OF_PERICENTER":277.3103,"MEAN_ANOMALY":82.7543,"EPHEMERIS_TYPE":0,"CLASSIFICATION_TYPE":"U","NORAD_CAT_ID":66967,"ELEMENT_SET_NO":999,"REV_AT_EPOCH":1126,"BSTAR":0.0011844137,"MEAN_MOTION_DOT":0.00049549,"MEAN_MOTION_DDOT":0},{"OBJECT_NAME":"STARLINK-36152","OBJECT_ID":"2025-288K","EPOCH":"2026-02-11T18:58:40.481184","MEAN_MOTION":15.31193349,"ECCENTRICITY":0.00025179,"INCLINATION":42.9973,"RA_OF_ASC_NODE":169.9581,"ARG_OF_PERICENTER":351.5179,"MEAN_ANOMALY":8.5631,"EPHEMERIS_TYPE":0,"CLASSIFICATION_TYPE":"U","NORAD_CAT_ID":66968,"ELEMENT_SET_NO":999,"REV_AT_EPOCH":1132,"BSTAR":-0.0095979604,"MEAN_MOTION_DOT":-0.00284601,"MEAN_MOTION_DDOT":0},{"OBJECT_NAME":"STARLINK-36149","OBJECT_ID":"2025-288L","EPOCH":"2026-02-10T15:55:36.951168","MEAN_MOTION":15.40732779,"ECCENTRICITY":0.00040342,"INCLINATION":43.0047,"RA_OF_ASC_NODE":176.9976,"ARG_OF_PERICENTER":290.6407,"MEAN_ANOMALY":69.4016,"EPHEMERIS_TYPE":0,"CLASSIFICATION_TYPE":"U","NORAD_CAT_ID":66969,"ELEMENT_SET_NO":999,"REV_AT_EPOCH":1114,"BSTAR":0.0010464259,"MEAN_MOTION_DOT":0.00043715,"MEAN_MOTION_DDOT":0},{"OBJECT_NAME":"STARLINK-35703","OBJECT_ID":"2025-288M","EPOCH":"2026-02-11T19:01:08.120640","MEAN_MOTION":15.40732131,"ECCENTRICITY":0.00016395,"INCLINATION":42.9994,"RA_OF_ASC_NODE":169.9742,"ARG_OF_PERICENTER":276.8478,"MEAN_ANOMALY":83.2192,"EPHEMERIS_TYPE":0,"CLASSIFICATION_TYPE":"U","NORAD_CAT_ID":66970,"ELEMENT_SET_NO":999,"REV_AT_EPOCH":1132,"BSTAR":0.0013586793,"MEAN_MOTION_DOT":0.00056938,"MEAN_MOTION_DDOT":0},{"OBJECT_NAME":"STARLINK-35678","OBJECT_ID":"2025-288N","EPOCH":"2026-02-10T16:08:20.625216","MEAN_MOTION":15.40649217,"ECCENTRICITY":0.0004103,"INCLINATION":42.9991,"RA_OF_ASC_NODE":176.186,"ARG_OF_PERICENTER":300.1278,"MEAN_ANOMALY":59.9172,"EPHEMERIS_TYPE":0,"CLASSIFICATION_TYPE":"U","NORAD_CAT_ID":66971,"ELEMENT_SET_NO":999,"REV_AT_EPOCH":1115,"BSTAR":0.0011493789,"MEAN_MOTION_DOT":0.0004794,"MEAN_MOTION_DDOT":0},{"OBJECT_NAME":"STARLINK-34846","OBJECT_ID":"2025-288P","EPOCH":"2026-02-11T11:20:49.741152","MEAN_MOTION":15.40745047,"ECCENTRICITY":0.00016961,"INCLINATION":42.9968,"RA_OF_ASC_NODE":171.8752,"ARG_OF_PERICENTER":288.1509,"MEAN_ANOMALY":71.9163,"EPHEMERIS_TYPE":0,"CLASSIFICATION_TYPE":"U","NORAD_CAT_ID":66972,"ELEMENT_SET_NO":999,"REV_AT_EPOCH":1127,"BSTAR":0.00066340132,"MEAN_MOTION_DOT":0.0002755,"MEAN_MOTION_DDOT":0},{"OBJECT_NAME":"STARLINK-35778","OBJECT_ID":"2025-288Q","EPOCH":"2026-02-11T19:43:04.134432","MEAN_MOTION":15.40733965,"ECCENTRICITY":0.00017838,"INCLINATION":42.9983,"RA_OF_ASC_NODE":170.2011,"ARG_OF_PERICENTER":277.7118,"MEAN_ANOMALY":82.3536,"EPHEMERIS_TYPE":0,"CLASSIFICATION_TYPE":"U","NORAD_CAT_ID":66973,"ELEMENT_SET_NO":999,"REV_AT_EPOCH":1132,"BSTAR":0.001399581,"MEAN_MOTION_DOT":0.00058678,"MEAN_MOTION_DDOT":0},{"OBJECT_NAME":"STARLINK-35780","OBJECT_ID":"2025-288R","EPOCH":"2026-02-10T09:22:50.964960","MEAN_MOTION":15.40714286,"ECCENTRICITY":0.00011868,"INCLINATION":42.9964,"RA_OF_ASC_NODE":178.3816,"ARG_OF_PERICENTER":241.5375,"MEAN_ANOMALY":118.5362,"EPHEMERIS_TYPE":0,"CLASSIFICATION_TYPE":"U","NORAD_CAT_ID":66974,"ELEMENT_SET_NO":999,"REV_AT_EPOCH":1110,"BSTAR":0.0012360406,"MEAN_MOTION_DOT":0.00051704,"MEAN_MOTION_DDOT":0},{"OBJECT_NAME":"STARLINK-35777","OBJECT_ID":"2025-288S","EPOCH":"2026-02-10T09:19:37.465248","MEAN_MOTION":15.40740899,"ECCENTRICITY":8.338e-5,"INCLINATION":42.998,"RA_OF_ASC_NODE":178.3645,"ARG_OF_PERICENTER":199.1867,"MEAN_ANOMALY":160.8958,"EPHEMERIS_TYPE":0,"CLASSIFICATION_TYPE":"U","NORAD_CAT_ID":66975,"ELEMENT_SET_NO":999,"REV_AT_EPOCH":1110,"BSTAR":0.0010956588,"MEAN_MOTION_DOT":0.00045802,"MEAN_MOTION_DDOT":0},{"OBJECT_NAME":"STARLINK-35772","OBJECT_ID":"2025-288T","EPOCH":"2026-02-11T09:03:25.216416","MEAN_MOTION":15.40747838,"ECCENTRICITY":7.673e-5,"INCLINATION":42.997,"RA_OF_ASC_NODE":174.6622,"ARG_OF_PERICENTER":177.6021,"MEAN_ANOMALY":182.4839,"EPHEMERIS_TYPE":0,"CLASSIFICATION_TYPE":"U","NORAD_CAT_ID":66976,"ELEMENT_SET_NO":999,"REV_AT_EPOCH":1123,"BSTAR":0.0013710579,"MEAN_MOTION_DOT":0.00057493,"MEAN_MOTION_DDOT":0},{"OBJECT_NAME":"STARLINK-35770","OBJECT_ID":"2025-288U","EPOCH":"2026-02-11T16:17:00.667680","MEAN_MOTION":15.40738681,"ECCENTRICITY":0.00030035,"INCLINATION":43.0018,"RA_OF_ASC_NODE":170.8411,"ARG_OF_PERICENTER":294.2067,"MEAN_ANOMALY":65.8475,"EPHEMERIS_TYPE":0,"CLASSIFICATION_TYPE":"U","NORAD_CAT_ID":66977,"ELEMENT_SET_NO":999,"REV_AT_EPOCH":1130,"BSTAR":0.0011635008,"MEAN_MOTION_DOT":0.00048676,"MEAN_MOTION_DDOT":0},{"OBJECT_NAME":"STARLINK-35787","OBJECT_ID":"2025-288V","EPOCH":"2026-02-10T15:45:56.227392","MEAN_MOTION":15.40729748,"ECCENTRICITY":0.00030526,"INCLINATION":43.0051,"RA_OF_ASC_NODE":176.9442,"ARG_OF_PERICENTER":275.5921,"MEAN_ANOMALY":84.4587,"EPHEMERIS_TYPE":0,"CLASSIFICATION_TYPE":"U","NORAD_CAT_ID":66978,"ELEMENT_SET_NO":999,"REV_AT_EPOCH":1114,"BSTAR":0.001086625,"MEAN_MOTION_DOT":0.00045407,"MEAN_MOTION_DDOT":0},{"OBJECT_NAME":"STARLINK-36107","OBJECT_ID":"2025-288W","EPOCH":"2026-02-11T22:00:01.999584","MEAN_MOTION":15.27568449,"ECCENTRICITY":0.00011849,"INCLINATION":43,"RA_OF_ASC_NODE":169.3974,"ARG_OF_PERICENTER":349.6077,"MEAN_ANOMALY":280.957,"EPHEMERIS_TYPE":0,"CLASSIFICATION_TYPE":"U","NORAD_CAT_ID":66979,"ELEMENT_SET_NO":999,"REV_AT_EPOCH":580,"BSTAR":0.00078891511,"MEAN_MOTION_DOT":0.00021503,"MEAN_MOTION_DDOT":0},{"OBJECT_NAME":"STARLINK-36086","OBJECT_ID":"2025-288X","EPOCH":"2026-02-11T16:20:13.321536","MEAN_MOTION":15.40783088,"ECCENTRICITY":0.00041703,"INCLINATION":43.0052,"RA_OF_ASC_NODE":170.8664,"ARG_OF_PERICENTER":296.2613,"MEAN_ANOMALY":63.7814,"EPHEMERIS_TYPE":0,"CLASSIFICATION_TYPE":"U","NORAD_CAT_ID":66980,"ELEMENT_SET_NO":999,"REV_AT_EPOCH":1130,"BSTAR":0.0016883421,"MEAN_MOTION_DOT":0.00071093,"MEAN_MOTION_DDOT":0},{"OBJECT_NAME":"STARLINK-36142","OBJECT_ID":"2025-288Y","EPOCH":"2026-02-11T10:00:23.683392","MEAN_MOTION":15.40735509,"ECCENTRICITY":0.00021752,"INCLINATION":42.9964,"RA_OF_ASC_NODE":172.3158,"ARG_OF_PERICENTER":292.9112,"MEAN_ANOMALY":67.1515,"EPHEMERIS_TYPE":0,"CLASSIFICATION_TYPE":"U","NORAD_CAT_ID":66981,"ELEMENT_SET_NO":999,"REV_AT_EPOCH":1126,"BSTAR":0.0013201797,"MEAN_MOTION_DOT":0.00055312,"MEAN_MOTION_DDOT":0},{"OBJECT_NAME":"STARLINK-36113","OBJECT_ID":"2025-288Z","EPOCH":"2026-02-11T09:37:47.571456","MEAN_MOTION":15.40741397,"ECCENTRICITY":0.00012816,"INCLINATION":42.9964,"RA_OF_ASC_NODE":172.1919,"ARG_OF_PERICENTER":196.4704,"MEAN_ANOMALY":163.6111,"EPHEMERIS_TYPE":0,"CLASSIFICATION_TYPE":"U","NORAD_CAT_ID":66982,"ELEMENT_SET_NO":999,"REV_AT_EPOCH":1126,"BSTAR":0.0012452521,"MEAN_MOTION_DOT":0.00052142,"MEAN_MOTION_DDOT":0},{"OBJECT_NAME":"STARLINK-36145","OBJECT_ID":"2025-288AA","EPOCH":"2026-02-11T22:00:01.999584","MEAN_MOTION":15.32359981,"ECCENTRICITY":0.00016308,"INCLINATION":42.999,"RA_OF_ASC_NODE":169.1751,"ARG_OF_PERICENTER":268.1411,"MEAN_ANOMALY":96.2691,"EPHEMERIS_TYPE":0,"CLASSIFICATION_TYPE":"U","NORAD_CAT_ID":66983,"ELEMENT_SET_NO":999,"REV_AT_EPOCH":593,"BSTAR":-0.069842032,"MEAN_MOTION_DOT":-0.02015118,"MEAN_MOTION_DDOT":0},{"OBJECT_NAME":"STARLINK-35591","OBJECT_ID":"2025-288AB","EPOCH":"2026-02-11T22:00:01.999584","MEAN_MOTION":15.28353491,"ECCENTRICITY":0.00010562,"INCLINATION":42.9991,"RA_OF_ASC_NODE":169.3156,"ARG_OF_PERICENTER":291.1055,"MEAN_ANOMALY":14.0674,"EPHEMERIS_TYPE":0,"CLASSIFICATION_TYPE":"U","NORAD_CAT_ID":66984,"ELEMENT_SET_NO":999,"REV_AT_EPOCH":593,"BSTAR":0.0012169089,"MEAN_MOTION_DOT":0.00034183,"MEAN_MOTION_DDOT":0},{"OBJECT_NAME":"STARLINK-36103","OBJECT_ID":"2025-288AC","EPOCH":"2026-02-11T22:00:01.999584","MEAN_MOTION":15.27560246,"ECCENTRICITY":0.00031073,"INCLINATION":42.9996,"RA_OF_ASC_NODE":169.2933,"ARG_OF_PERICENTER":291.1481,"MEAN_ANOMALY":21.8341,"EPHEMERIS_TYPE":0,"CLASSIFICATION_TYPE":"U","NORAD_CAT_ID":66985,"ELEMENT_SET_NO":999,"REV_AT_EPOCH":590,"BSTAR":0.00080385788,"MEAN_MOTION_DOT":0.00021912,"MEAN_MOTION_DDOT":0},{"OBJECT_NAME":"STARLINK-36135","OBJECT_ID":"2025-288AD","EPOCH":"2026-02-10T09:58:08.087232","MEAN_MOTION":15.40738635,"ECCENTRICITY":0.00013683,"INCLINATION":42.9975,"RA_OF_ASC_NODE":177.6915,"ARG_OF_PERICENTER":249.0704,"MEAN_ANOMALY":111.0007,"EPHEMERIS_TYPE":0,"CLASSIFICATION_TYPE":"U","NORAD_CAT_ID":66986,"ELEMENT_SET_NO":999,"REV_AT_EPOCH":1111,"BSTAR":0.0016065781,"MEAN_MOTION_DOT":0.0006749,"MEAN_MOTION_DDOT":0},{"OBJECT_NAME":"STARLINK-36147","OBJECT_ID":"2025-288AE","EPOCH":"2026-02-10T09:51:41.327136","MEAN_MOTION":15.40746321,"ECCENTRICITY":0.00016912,"INCLINATION":42.9999,"RA_OF_ASC_NODE":177.6595,"ARG_OF_PERICENTER":284.8869,"MEAN_ANOMALY":75.18,"EPHEMERIS_TYPE":0,"CLASSIFICATION_TYPE":"U","NORAD_CAT_ID":66987,"ELEMENT_SET_NO":999,"REV_AT_EPOCH":1111,"BSTAR":0.0013465531,"MEAN_MOTION_DOT":0.0005645,"MEAN_MOTION_DDOT":0},{"OBJECT_NAME":"STARLINK-35660","OBJECT_ID":"2025-293A","EPOCH":"2026-02-11T17:24:28.981152","MEAN_MOTION":14.98338663,"ECCENTRICITY":0.00036151,"INCLINATION":69.9997,"RA_OF_ASC_NODE":160.1238,"ARG_OF_PERICENTER":273.1961,"MEAN_ANOMALY":86.8784,"EPHEMERIS_TYPE":0,"CLASSIFICATION_TYPE":"U","NORAD_CAT_ID":67003,"ELEMENT_SET_NO":999,"REV_AT_EPOCH":1099,"BSTAR":0.00050083895,"MEAN_MOTION_DOT":5.889e-5,"MEAN_MOTION_DDOT":0},{"OBJECT_NAME":"STARLINK-35913","OBJECT_ID":"2025-293B","EPOCH":"2026-02-11T18:12:31.811328","MEAN_MOTION":14.98342983,"ECCENTRICITY":0.00029262,"INCLINATION":70.0023,"RA_OF_ASC_NODE":159.84,"ARG_OF_PERICENTER":274.4997,"MEAN_ANOMALY":85.5828,"EPHEMERIS_TYPE":0,"CLASSIFICATION_TYPE":"U","NORAD_CAT_ID":67004,"ELEMENT_SET_NO":999,"REV_AT_EPOCH":1100,"BSTAR":0.00065330753,"MEAN_MOTION_DOT":7.713e-5,"MEAN_MOTION_DDOT":0}]
